{
  "type": "FeatureCollection",
  "features": [
    {
      "type": "Feature",
      "properties": {
        "norad_id": 2807,
        "name": "OPS 7218 (TRANSIT 16)",
        "group": "nnss",
        "lat": 64.70732812797104,
        "lon": 173.35066265189707,
        "alt_km": 1047.0670439161986,
        "timestamp": "2025-12-11T22:43:47.537194+00:00",
        "meta_object_name": "OPS 7218 (TRANSIT 16)",
        "meta_object_id": "1967-048A",
        "meta_epoch": "2025-12-11T12:18:31.413312",
        "meta_mean_motion": 13.50721902,
        "meta_eccentricity": 0.00219028,
        "meta_inclination": 89.6732,
        "meta_ra_of_asc_node": 354.057,
        "meta_arg_of_pericenter": 117.3369,
        "meta_mean_anomaly": 47.7586,
        "meta_ephemeris_type": 0,
        "meta_classification_type": "U",
        "meta_norad_cat_id": 2807,
        "meta_element_set_no": 999,
        "meta_rev_at_epoch": 88259,
        "meta_bstar": 0.00020958257,
        "meta_mean_motion_dot": 1.45e-06,
        "meta_mean_motion_ddot": 0,
        "tle_line1": "1 02807U 67048A   25345.51286358  .00000145  00000+0  20958-3 0  9995",
        "tle_line2": "2 02807  89.6732 354.0570 0021902 117.3369  47.7586 13.50721902882591"
      },
      "geometry": {
        "type": "Point",
        "coordinates": [
          173.35066265189707,
          64.70732812797104
        ]
      }
    },
    {
      "type": "Feature",
      "properties": {
        "norad_id": 2965,
        "name": "OPS 4947 (TRANSIT 17)",
        "group": "nnss",
        "lat": 8.413405648455514,
        "lon": -155.61485061851178,
        "alt_km": 1047.0027987678077,
        "timestamp": "2025-12-11T22:43:47.537218+00:00",
        "meta_object_name": "OPS 4947 (TRANSIT 17)",
        "meta_object_id": "1967-092A",
        "meta_epoch": "2025-12-11T09:30:40.409856",
        "meta_mean_motion": 13.53453015,
        "meta_eccentricity": 0.00461041,
        "meta_inclination": 89.2497,
        "meta_ra_of_asc_node": 24.5381,
        "meta_arg_of_pericenter": 238.5289,
        "meta_mean_anomaly": 131.4019,
        "meta_ephemeris_type": 0,
        "meta_classification_type": "U",
        "meta_norad_cat_id": 2965,
        "meta_element_set_no": 999,
        "meta_rev_at_epoch": 87079,
        "meta_bstar": 0.0002507644,
        "meta_mean_motion_dot": 1.81e-06,
        "meta_mean_motion_ddot": 0,
        "tle_line1": "1 02965U 67092A   25345.39630104  .00000181  00000+0  25076-3 0  9993",
        "tle_line2": "2 02965  89.2497  24.5381 0046104 238.5289 131.4019 13.53453015870798"
      },
      "geometry": {
        "type": "Point",
        "coordinates": [
          -155.61485061851178,
          8.413405648455514
        ]
      }
    },
    {
      "type": "Feature",
      "properties": {
        "norad_id": 3133,
        "name": "OPS 7034 (TRANSIT 18)",
        "group": "nnss",
        "lat": -33.22851216015731,
        "lon": -86.34517976785774,
        "alt_km": 1122.5417342041928,
        "timestamp": "2025-12-11T22:43:47.537254+00:00",
        "meta_object_name": "OPS 7034 (TRANSIT 18)",
        "meta_object_id": "1968-012A",
        "meta_epoch": "2025-12-11T13:05:39.509088",
        "meta_mean_motion": 13.51565248,
        "meta_eccentricity": 0.00737273,
        "meta_inclination": 90.0279,
        "meta_ra_of_asc_node": 273.6354,
        "meta_arg_of_pericenter": 172.5806,
        "meta_mean_anomaly": 1.6392,
        "meta_ephemeris_type": 0,
        "meta_classification_type": "U",
        "meta_norad_cat_id": 3133,
        "meta_element_set_no": 999,
        "meta_rev_at_epoch": 56902,
        "meta_bstar": 0.00025524024,
        "meta_mean_motion_dot": 1.79e-06,
        "meta_mean_motion_ddot": 0,
        "tle_line1": "1 03133U 68012A   25345.54559617  .00000179  00000+0  25524-3 0  9995",
        "tle_line2": "2 03133  90.0279 273.6354 0073727 172.5806   1.6392 13.51565248569027"
      },
      "geometry": {
        "type": "Point",
        "coordinates": [
          -86.34517976785774,
          -33.22851216015731
        ]
      }
    },
    {
      "type": "Feature",
      "properties": {
        "norad_id": 4507,
        "name": "NNSS 19 (TRANSIT 19)",
        "group": "nnss",
        "lat": -61.2558609160705,
        "lon": -125.45676156143054,
        "alt_km": 947.7816341152666,
        "timestamp": "2025-12-11T22:43:47.537271+00:00",
        "meta_object_name": "NNSS 19 (TRANSIT 19)",
        "meta_object_id": "1970-067A",
        "meta_epoch": "2025-12-11T05:15:12.507264",
        "meta_mean_motion": 13.51314509,
        "meta_eccentricity": 0.0170634,
        "meta_inclination": 90.0055,
        "meta_ra_of_asc_node": 234.5328,
        "meta_arg_of_pericenter": 297.8266,
        "meta_mean_anomaly": 60.5684,
        "meta_ephemeris_type": 0,
        "meta_classification_type": "U",
        "meta_norad_cat_id": 4507,
        "meta_element_set_no": 999,
        "meta_rev_at_epoch": 72201,
        "meta_bstar": 0.00023118437,
        "meta_mean_motion_dot": 1.72e-06,
        "meta_mean_motion_ddot": 0,
        "tle_line1": "1 04507U 70067A   25345.21889476  .00000172  00000+0  23118-3 0  9997",
        "tle_line2": "2 04507  90.0055 234.5328 0170634 297.8266  60.5684 13.51314509722018"
      },
      "geometry": {
        "type": "Point",
        "coordinates": [
          -125.45676156143054,
          -61.2558609160705
        ]
      }
    },
    {
      "type": "Feature",
      "properties": {
        "norad_id": 6909,
        "name": "NNSS 20 (TRANSIT 20)",
        "group": "nnss",
        "lat": -47.48008063723154,
        "lon": -105.09094940949556,
        "alt_km": 1071.3323912847072,
        "timestamp": "2025-12-11T22:43:47.537283+00:00",
        "meta_object_name": "NNSS 20 (TRANSIT 20)",
        "meta_object_id": "1973-081A",
        "meta_epoch": "2025-12-11T07:12:11.412576",
        "meta_mean_motion": 13.71433253,
        "meta_eccentricity": 0.01566046,
        "meta_inclination": 89.8562,
        "meta_ra_of_asc_node": 255.0757,
        "meta_arg_of_pericenter": 82.5797,
        "meta_mean_anomaly": 279.313,
        "meta_ephemeris_type": 0,
        "meta_classification_type": "U",
        "meta_norad_cat_id": 6909,
        "meta_element_set_no": 999,
        "meta_rev_at_epoch": 80341,
        "meta_bstar": 0.00034370719,
        "meta_mean_motion_dot": 3.49e-06,
        "meta_mean_motion_ddot": 0,
        "tle_line1": "1 06909U 73081A   25345.30013209  .00000349  00000+0  34371-3 0  9996",
        "tle_line2": "2 06909  89.8562 255.0757 0156604  82.5797 279.3130 13.71433253803418"
      },
      "geometry": {
        "type": "Point",
        "coordinates": [
          -105.09094940949556,
          -47.48008063723154
        ]
      }
    },
    {
      "type": "Feature",
      "properties": {
        "norad_id": 10457,
        "name": "TRANSAT",
        "group": "nnss",
        "lat": -49.382474247313105,
        "lon": 78.21464032107717,
        "alt_km": 1092.1541051661688,
        "timestamp": "2025-12-11T22:43:47.537294+00:00",
        "meta_object_name": "TRANSAT",
        "meta_object_id": "1977-106A",
        "meta_epoch": "2025-12-11T12:20:59.394912",
        "meta_mean_motion": 13.48943412,
        "meta_eccentricity": 0.00252792,
        "meta_inclination": 89.6482,
        "meta_ra_of_asc_node": 78.6404,
        "meta_arg_of_pericenter": 193.0415,
        "meta_mean_anomaly": 178.3361,
        "meta_ephemeris_type": 0,
        "meta_classification_type": "U",
        "meta_norad_cat_id": 10457,
        "meta_element_set_no": 999,
        "meta_rev_at_epoch": 36727,
        "meta_bstar": 0.00019584744,
        "meta_mean_motion_dot": 1.33e-06,
        "meta_mean_motion_ddot": 0,
        "tle_line1": "1 10457U 77106A   25345.51457633  .00000133  00000+0  19585-3 0  9998",
        "tle_line2": "2 10457  89.6482  78.6404 0025279 193.0415 178.3361 13.48943412367276"
      },
      "geometry": {
        "type": "Point",
        "coordinates": [
          78.21464032107717,
          -49.382474247313105
        ]
      }
    },
    {
      "type": "Feature",
      "properties": {
        "norad_id": 12458,
        "name": "NOVA 1",
        "group": "nnss",
        "lat": -74.91644668316623,
        "lon": 90.8483072286772,
        "alt_km": 1191.6516439955321,
        "timestamp": "2025-12-11T22:43:47.537305+00:00",
        "meta_object_name": "NOVA 1",
        "meta_object_id": "1981-044A",
        "meta_epoch": "2025-12-11T14:05:31.831008",
        "meta_mean_motion": 13.23278409,
        "meta_eccentricity": 0.00158943,
        "meta_inclination": 89.8524,
        "meta_ra_of_asc_node": 91.4014,
        "meta_arg_of_pericenter": 106.8269,
        "meta_mean_anomaly": 264.7673,
        "meta_ephemeris_type": 0,
        "meta_classification_type": "U",
        "meta_norad_cat_id": 12458,
        "meta_element_set_no": 999,
        "meta_rev_at_epoch": 15171,
        "meta_bstar": 0.00018167359,
        "meta_mean_motion_dot": 8.6e-07,
        "meta_mean_motion_ddot": 0,
        "tle_line1": "1 12458U 81044A   25345.58717397  .00000086  00000+0  18167-3 0  9992",
        "tle_line2": "2 12458  89.8524  91.4014 0015894 106.8269 264.7673 13.23278409151715"
      },
      "geometry": {
        "type": "Point",
        "coordinates": [
          90.8483072286772,
          -74.91644668316623
        ]
      }
    }
  ]
}